NORAD_CAT_ID,OBJECT_NAME,OBJECT_TYPE,EPOCH,MEAN_MOTION,ECCENTRICITY,INCLINATION,RA_OF_ASC_NODE,ARG_OF_PERICENTER,MEAN_ANOMALY,BSTAR,MEAN_MOTION_DOT,MEAN_MOTION_DDOT,TLE_LINE0,TLE_LINE1,TLE_LINE2,SEMIMAJOR_AXIS,PERIOD,APOGEE,PERIGEE,DECAYED
53173.0,STARLINK-4300,PAYLOAD,2023-08-27 14:56:14,15.08856075,0.0001354,53.2172,331.8996,114.2615,245.8519,2.6502e-05,1.34e-06,0.0,0 STARLINK-4300,1 53173U 22083AT  23239.62239310  .00000134  00000-0  26502-4 0  9996,2 53173  53.2172 331.8996 0001354 114.2615 245.8519 15.08856075 62684,6917.831,95.437,540.633,538.76,0.0
53173.0,STARLINK-4300,PAYLOAD,2023-08-28 06:50:07,15.08836262,0.0001141,53.2174,328.9275,99.3351,260.777,-2.988e-06,-3.35e-06,0.0,0 STARLINK-4300,1 53173U 22083AT  23240.28480385 -.00000335  00000-0 -29880-5 0  9998,2 53173  53.2174 328.9275 0001141  99.3351 260.7770 15.08836262 62789,6917.892,95.438,540.546,538.967,0.0
53173.0,STARLINK-4300,PAYLOAD,2023-08-28 14:47:02,15.08839386,0.0001265,53.2171,327.4404,95.3696,264.744,3.6511e-05,2.93e-06,0.0,0 STARLINK-4300,1 53173U 22083AT  23240.61600306  .00000293  00000-0  36511-4 0  9991,2 53173  53.2171 327.4404 0001265  95.3696 264.7440 15.08839386 62192,6917.882,95.438,540.622,538.872,0.0
53173.0,STARLINK-4300,PAYLOAD,2023-08-29 09:51:40,15.08840263,0.0001228,53.2165,323.8724,90.9277,269.1856,-5.2804e-06,-3.72e-06,0.0,0 STARLINK-4300,1 53173U 22083AT  23241.41088388 -.00000372  00000-0 -52804-5 0  9994,2 53173  53.2165 323.8724 0001228  90.9277 269.1856 15.08840263 62955,6917.88,95.438,540.594,538.895,0.0
53173.0,STARLINK-4300,PAYLOAD,2023-08-29 13:02:26,15.08842716,0.0001327,53.2165,323.2778,101.5607,258.5534,7.2904e-05,8.73e-06,0.0,0 STARLINK-4300,1 53173U 22083AT  23241.54336274  .00000873  00000-0  72904-4 0  9994,2 53173  53.2165 323.2778 0001327 101.5607 258.5534 15.08842716 62336,6917.872,95.437,540.655,538.819,0.0
53173.0,STARLINK-4300,PAYLOAD,2023-08-30 12:53:14,15.08838653,0.0001348,53.2165,318.818,83.7556,276.359,0.00011098,1.479e-05,0.0,0 STARLINK-4300,1 53173U 22083AT  23242.53696763  .00001479  00000-0  11098-3 0  9995,2 53173  53.2165 318.8180 0001348  83.7556 276.3590 15.08838653 63123,6917.885,95.438,540.682,538.817,0.0
53173.0,STARLINK-4300,PAYLOAD,2023-08-31 12:44:01,15.08841295,0.0001315,53.2163,314.3587,93.1516,266.9626,7.1032e-05,8.43e-06,0.0,0 STARLINK-4300,1 53173U 22083AT  23243.53056853  .00000843  00000-0  71032-4 0  9995,2 53173  53.2163 314.3587 0001315  93.1516 266.9626 15.08841295 62634,6917.876,95.437,540.651,538.832,0.0
53173.0,STARLINK-4300,PAYLOAD,2023-09-01 10:59:25,15.08839524,0.0001315,53.2165,310.1951,82.0785,278.0356,0.00031679,4.757e-05,0.0,0 STARLINK-4300,1 53173U 22083AT  23244.45793154  .00004757  00000-0  31679-3 0  9999,2 53173  53.2165 310.1951 0001315  82.0785 278.0356 15.08839524 63413,6917.882,95.438,540.657,538.837,0.0
53173.0,STARLINK-4300,PAYLOAD,2023-09-01 15:45:33,15.08854635,0.0001209,53.2173,309.3017,85.5529,274.5602,0.00027606,4.11e-05,0.0,0 STARLINK-4300,1 53173U 22083AT  23244.65664279  .00004110  00000-0  27606-3 0  9994,2 53173  53.2173 309.3017 0001209  85.5529 274.5602 15.08854635 63449,6917.836,95.437,540.537,538.864,0.0
53173.0,STARLINK-4300,PAYLOAD,2023-09-02 04:28:39,15.08844065,0.0001846,53.2129,306.9243,86.169,273.9513,9.2677e-05,1.187e-05,0.0,0 STARLINK-4300,1 53173U 22083AT  23245.18656855  .00001187  00000-0  92677-4 0  9996,2 53173  53.2129 306.9243 0001846  86.1690 273.9513 15.08844065 63526,6917.868,95.437,541.01,538.456,0.0
53173.0,STARLINK-4300,PAYLOAD,2023-09-02 12:25:35,15.08842885,0.0001804,53.2134,305.4376,84.1396,275.9802,6.6807e-05,7.75e-06,0.0,0 STARLINK-4300,1 53173U 22083AT  23245.51776842  .00000775  00000-0  66807-4 0  9990,2 53173  53.2134 305.4376 0001804  84.1396 275.9802 15.08842885 62933,6917.872,95.437,540.985,538.489,0.0
53173.0,STARLINK-4300,PAYLOAD,2023-09-02 14:00:58,15.08843747,0.0001788,53.2143,305.1395,86.4064,273.7132,6.7631e-05,7.89e-06,0.0,0 STARLINK-4300,1 53173U 22083AT  23245.58400792  .00000789  00000-0  67631-4 0  9996,2 53173  53.2143 305.1395 0001788  86.4064 273.7132 15.08843747 62940,6917.869,95.437,540.971,538.497,0.0
53173.0,STARLINK-4300,PAYLOAD,2023-09-03 10:40:58,15.08846559,0.0001866,53.2145,301.2717,93.9611,266.1595,0.00010205,1.337e-05,0.0,0 STARLINK-4300,1 53173U 22083AT  23246.44512310  .00001337  00000-0  10205-3 0  9996,2 53173  53.2145 301.2717 0001866  93.9611 266.1595 15.08846559 63714,6917.86,95.437,541.016,538.434,0.0
53173.0,STARLINK-4300,PAYLOAD,2023-09-03 12:16:21,15.08849556,0.0001391,53.2163,300.9755,90.5097,269.6054,4.6966e-05,4.6e-06,0.0,0 STARLINK-4300,1 53173U 22083AT  23246.51136217  .00000460  00000-0  46966-4 0  9992,2 53173  53.2163 300.9755 0001391  90.5097 269.6054 15.08849556 63084,6917.851,95.437,540.678,538.754,0.0
53173.0,STARLINK-4300,PAYLOAD,2023-09-04 02:34:50,15.0883739,0.0001795,53.2158,298.3007,86.8611,273.2587,-6.4906e-05,-1.321e-05,0.0,0 STARLINK-4300,1 53173U 22083AT  23247.10753304 -.00001321  00000-0 -64906-4 0  9993,2 53173  53.2158 298.3007 0001795  86.8611 273.2587 15.08837390 63812,6917.888,95.438,540.995,538.512,0.0
53173.0,STARLINK-4300,PAYLOAD,2023-09-04 10:31:47,15.08829404,0.0001235,53.2177,296.8159,82.9542,277.159,-0.00011871,-2.176e-05,0.0,0 STARLINK-4300,1 53173U 22083AT  23247.43874231 -.00002176  00000-0 -11871-3 0  9993,2 53173  53.2177 296.8159 0001235  82.9542 277.1590 15.08829404 63862,6917.913,95.438,540.632,538.923,0.0
53173.0,STARLINK-4300,PAYLOAD,2023-09-05 11:57:57,15.08837655,0.0001438,53.2165,292.0551,86.248,273.8677,5.3955e-05,5.71e-06,0.0,0 STARLINK-4300,1 53173U 22083AT  23248.49857909  .00000571  00000-0  53955-4 0  9998,2 53173  53.2165 292.0551 0001438  86.2480 273.8677 15.08837655 64021,6917.888,95.438,540.747,538.758,0.0
53173.0,STARLINK-4300,PAYLOAD,2023-09-06 02:16:25,15.08835194,0.0001453,53.2163,289.3785,81.1638,278.9518,0.0002737,4.07e-05,0.0,0 STARLINK-4300,1 53173U 22083AT  23249.09473852  .00004070  00000-0  27370-3 0  9995,2 53173  53.2163 289.3785 0001453  81.1638 278.9518 15.08835194 63477,6917.895,95.438,540.765,538.755,0.0
53173.0,STARLINK-4300,PAYLOAD,2023-09-07 02:07:12,15.08846224,0.0001521,53.2157,284.9173,81.3761,278.7403,0.00017506,2.5e-05,0.0,0 STARLINK-4300,1 53173U 22083AT  23250.08833714  .00002500  00000-0  17506-3 0  9999,2 53173  53.2157 284.9173 0001521  81.3761 278.7403 15.08846224 64262,6917.861,95.437,540.779,538.674,0.0
53173.0,STARLINK-4300,PAYLOAD,2023-09-07 11:39:31,15.08846772,0.0001365,53.2157,283.1317,83.9658,276.149,0.00010489,1.382e-05,0.0,0 STARLINK-4300,1 53173U 22083AT  23250.48577695  .00001382  00000-0  10489-3 0  9996,2 53173  53.2157 283.1317 0001365  83.9658 276.1490 15.08846772 63683,6917.86,95.437,540.669,538.78,0.0
53173.0,STARLINK-4300,PAYLOAD,2023-09-07 14:50:17,15.0884755,0.0001382,53.216,282.5375,85.4523,274.6627,0.00010565,1.394e-05,0.0,0 STARLINK-4300,1 53173U 22083AT  23250.61825587  .00001394  00000-0  10565-3 0  9995,2 53173  53.2160 282.5375 0001382  85.4523 274.6627 15.08847550 63704,6917.857,95.437,540.678,538.766,0.0
53173.0,STARLINK-4300,PAYLOAD,2023-09-08 01:57:59,15.08843538,0.0001512,53.2161,280.4551,104.6692,255.4468,4.2748e-05,3.92e-06,0.0,0 STARLINK-4300,1 53173U 22083AT  23251.08193797  .00000392  00000-0  42748-4 0  9994,2 53173  53.2161 280.4551 0001512 104.6692 255.4468 15.08843538 64415,6917.87,95.437,540.781,538.689,0.0
53173.0,STARLINK-4300,PAYLOAD,2023-09-08 08:19:31,15.08845727,0.0001532,53.216,279.266,101.5759,258.5405,4.9059e-05,4.93e-06,0.0,0 STARLINK-4300,1 53173U 22083AT  23251.34689546  .00000493  00000-0  49059-4 0  9999,2 53173  53.2160 279.2660 0001532 101.5759 258.5405 15.08845727 63813,6917.863,95.437,540.788,538.668,0.0
53173.0,STARLINK-4300,PAYLOAD,2023-09-08 19:27:14,15.08836454,0.0001548,53.2163,277.1846,98.8727,261.244,3.0691e-05,2e-06,0.0,0 STARLINK-4300,1 53173U 22083AT  23251.81058050  .00000200  00000-0  30691-4 0  9999,2 53173  53.2163 277.1846 0001548  98.8727 261.2440 15.08836454 63883,6917.891,95.438,540.827,538.685,0.0
53173.0,STARLINK-4300,PAYLOAD,2023-09-09 01:48:46,15.08838019,0.0001457,53.2165,275.9952,97.7044,262.4114,3.9511e-05,3.41e-06,0.0,0 STARLINK-4300,1 53173U 22083AT  23252.07553951  .00000341  00000-0  39511-4 0  9994,2 53173  53.2165 275.9952 0001457  97.7044 262.4114 15.08838019 64564,6917.886,95.438,540.759,538.744,0.0
53173.0,STARLINK-4300,PAYLOAD,2023-09-09 08:10:18,15.08842128,0.000147,53.2162,274.8059,95.423,264.693,7.1084e-05,8.44e-06,0.0,0 STARLINK-4300,1 53173U 22083AT  23252.34049588  .00000844  00000-0  71084-4 0  9999,2 53173  53.2162 274.8059 0001470  95.4230 264.6930 15.08842128 63963,6917.874,95.437,540.756,538.722,0.0
53173.0,STARLINK-4300,PAYLOAD,2023-09-10 08:01:05,15.08847409,0.0001388,53.2162,270.345,93.0065,267.1086,7.6754e-06,-1.66e-06,0.0,0 STARLINK-4300,1 53173U 22083AT  23253.33409537 -.00000166  00000-0  76754-5 0  9991,2 53173  53.2162 270.3450 0001388  93.0065 267.1086 15.08847409 64752,6917.858,95.437,540.683,538.763,0.0
53173.0,STARLINK-4300,PAYLOAD,2023-09-11 01:30:21,15.08834005,0.0001427,53.2156,267.0743,92.7684,267.3471,7.719e-05,9.41e-06,0.0,0 STARLINK-4300,1 53173U 22083AT  23254.06274398  .00000941  00000-0  77190-4 0  9991,2 53173  53.2156 267.0743 0001427  92.7684 267.3471 15.08834005 64860,6917.899,95.438,540.751,538.777,0.0
53173.0,STARLINK-4300,PAYLOAD,2023-09-11 07:51:53,15.0883538,0.0001474,53.2164,265.8867,91.5634,268.5527,2.6747e-05,1.38e-06,0.0,0 STARLINK-4300,1 53173U 22083AT  23254.32770491  .00000138  00000-0  26747-4 0  9995,2 53173  53.2164 265.8867 0001474  91.5634 268.5527 15.08835380 64262,6917.895,95.438,540.779,538.74,0.0
53173.0,STARLINK-4300,PAYLOAD,2023-09-12 01:21:07,15.08841886,0.0001408,53.2156,262.6147,89.2044,270.9109,9.568e-05,1.235e-05,0.0,0 STARLINK-4300,1 53173U 22083AT  23255.05634009  .00001235  00000-0  95680-4 0  9991,2 53173  53.2156 262.6147 0001408  89.2044 270.9109 15.08841886 65010,6917.875,95.437,540.714,538.766,0.0
